[{"OBJECT_NAME":"STARLINK-32415","OBJECT_ID":"2024-202S","EPOCH":"2026-03-09T12:59:44.258208","MEAN_MOTION":15.27575199,"ECCENTRICITY":0.00017932,"INCLINATION":43.0016,"RA_OF_ASC_NODE":238.9403,"ARG_OF_PERICENTER":270.3936,"MEAN_ANOMALY":89.671,"EPHEMERIS_TYPE":0,"CLASSIFICATION_TYPE":"U","NORAD_CAT_ID":61861,"ELEMENT_SET_NO":999,"REV_AT_EPOCH":7530,"BSTAR":2.703256e-5,"MEAN_MOTION_DOT":4.82e-6,"MEAN_MOTION_DDOT":0},{"OBJECT_NAME":"OBJECT B","OBJECT_ID":"2024-205B","EPOCH":"2026-03-09T23:46:05.115936","MEAN_MOTION":15.28158697,"ECCENTRICITY":0.00105957,"INCLINATION":97.4192,"RA_OF_ASC_NODE":146.9311,"ARG_OF_PERICENTER":34.0947,"MEAN_ANOMALY":326.0972,"EPHEMERIS_TYPE":0,"CLASSIFICATION_TYPE":"U","NORAD_CAT_ID":61895,"ELEMENT_SET_NO":999,"REV_AT_EPOCH":7352,"BSTAR":0.00054154807,"MEAN_MOTION_DOT":0.00014827,"MEAN_MOTION_DDOT":0}]
